{
    "links": {
        "self": "http://www.neowsapp.com/rest/v1/neo/3342315?api_key=iIulBulltgU6a56xZRHN4H3l9WmuAYTsLGpBGhQ2"
    },
    "id": "3342315",
    "neo_reference_id": "3342315",
    "name": "(2006 QJ65)",
    "designation": "2006 QJ65",
    "nasa_jpl_url": "http://ssd.jpl.nasa.gov/sbdb.cgi?sstr=3342315",
    "absolute_magnitude_h": 22.0,
    "estimated_diameter": {
        "kilometers": {
            "estimated_diameter_min": 0.1058168859,
            "estimated_diameter_max": 0.2366137501
        },
        "meters": {
            "estimated_diameter_min": 105.8168859331,
            "estimated_diameter_max": 236.6137501138
        },
        "miles": {
            "estimated_diameter_min": 0.0657515442,
            "estimated_diameter_max": 0.1470249225
        },
        "feet": {
            "estimated_diameter_min": 347.1682720448,
            "estimated_diameter_max": 776.2918559233
        }
    },
    "is_potentially_hazardous_asteroid": false,
    "close_approach_data": [
        {
            "close_approach_date": "1911-12-17",
            "close_approach_date_full": "1911-Dec-17 15:43",
            "epoch_date_close_approach": -1831623420000,
            "relative_velocity": {
                "kilometers_per_second": "4.8228021102",
                "kilometers_per_hour": "17362.0875966264",
                "miles_per_hour": "10788.1260402482"
            },
            "miss_distance": {
                "astronomical": "1.0600009959",
                "lunar": "412.3403874051",
                "kilometers": "158573891.184518733",
                "miles": "98533246.9346871954"
            },
            "orbiting_body": "Juptr"
        },
        {
            "close_approach_date": "1914-01-19",
            "close_approach_date_full": "1914-Jan-19 10:48",
            "epoch_date_close_approach": -1765631520000,
            "relative_velocity": {
                "kilometers_per_second": "16.9915454539",
                "kilometers_per_hour": "61169.5636342146",
                "miles_per_hour": "38008.3880259374"
            },
            "miss_distance": {
                "astronomical": "0.0851964873",
                "lunar": "33.1414335597",
                "kilometers": "12745213.031562051",
                "miles": "7919508.1453402638"
            },
            "orbiting_body": "Earth"
        },
        {
            "close_approach_date": "2006-09-30",
            "close_approach_date_full": "2006-Sep-30 02:52",
            "epoch_date_close_approach": 1159584720000,
            "relative_velocity": {
                "kilometers_per_second": "14.0903141783",
                "kilometers_per_hour": "50725.1310418451",
                "miles_per_hour": "31518.6237854176"
            },
            "miss_distance": {
                "astronomical": "0.0515066354",
                "lunar": "20.0360811706",
                "kilometers": "7705282.946706598",
                "miles": "4787840.8079551324"
            },
            "orbiting_body": "Earth"
        }
    ],
    "orbital_data": {
        "orbit_id": "8",
        "orbit_determination_date": "2020-01-12 04:53:41",
        "first_observation_date": "2006-08-27",
        "last_observation_date": "2006-09-18",
        "data_arc_in_days": 22,
        "observations_used": 43,
        "orbit_uncertainty": "8",
        "minimum_orbit_intersection": ".046971",
        "jupiter_tisserand_invariant": "3.023",
        "epoch_osculation": "2453988.5",
        "eccentricity": ".6809542521158395",
        "semi_major_axis": "2.617045432626615",
        "inclination": "5.071985254439215",
        "ascending_node_longitude": "153.1249145225266",
        "orbital_period": "1546.376781142286",
        "perihelion_distance": ".8349572172991849",
        "perihelion_argument": "266.4841841491939",
        "aphelion_distance": "4.399133647954046",
        "perihelion_time": "2454045.138333346659",
        "mean_anomaly": "346.814468340804",
        "mean_motion": ".2328022538815367",
        "equinox": "J2000",
        "orbit_class": {
            "orbit_class_type": "APO",
            "orbit_class_description": "Near-Earth asteroid orbits which cross the Earth’s orbit similar to that of 1862 Apollo",
            "orbit_class_range": "a (semi-major axis) > 1.0 AU; q (perihelion) < 1.017 AU"
        }
    },
    "is_sentry_object": false
}